0 FENGYUN 1C DEB
1 30199U 99025VG  13282.81218095  .00001109  00000-0  48583-3 0  7885
2 30199 098.8194 306.7763 0097229 022.3465 029.2822 14.23238648349367
0 FENGYUN 1C DEB
1 30199U 99025VG  13285.97952760  .00001252  00000-0  54584-3 0  7909
2 30199 098.8186 309.9504 0097040 013.1504 057.7648 14.23246155349813
0 FENGYUN 1C DEB
1 30199U 99025VG  13287.03026348  .00001382  00000-0  60092-3 0  7918
2 30199 098.8183 311.0034 0096977 010.1009 041.4226 14.23248453349968
0 FENGYUN 1C DEB
1 30199U 99025VG  13288.87224772  .00001630  00000-0  70515-3 0  7920
2 30199 098.8179 312.8490 0096872 004.7446 119.2445 14.23256006350227
0 FENGYUN 1C DEB
1 30199U 99025VG  13290.62800519  .00001553  00000-0  67290-3 0  7936
2 30199 098.8178 314.6081 0096786 359.6410 115.3004 14.23262620350473
0 FENGYUN 1C DEB
1 30199U 99025VG  13292.02320550  .00001569  00000-0  67943-3 0  7947
2 30199 098.8178 316.0060 0096728 355.5638 064.0065 14.23265983350673
0 FENGYUN 1C DEB
1 30199U 99025VG  13293.07786279  .00001664  00000-0  71957-3 0  7954
2 30199 098.8178 317.0625 0096690 352.4793 067.8588 14.23269123350825
0 FENGYUN 1C DEB
1 30199U 99025VG  13294.63700846  .00001784  00000-0  77016-3 0  7969
2 30199 098.8178 318.6244 0096633 347.9387 136.6107 14.23275016351049
0 FENGYUN 1C DEB
1 30199U 99025VG  13295.90157674  .00001748  00000-0  75463-3 0  7970
2 30199 098.8179 319.8917 0096581 344.2649 136.0191 14.23279079351223
